{{Infobox Planet  
| name = 688 Melanie
| image = 
| caption = 
| discovery=yes | physical_characteristics = yes | bgcolour=#FFFFC0
| discovery_ref = 
| discoverer = [[约翰·帕利扎|约翰·帕利扎]]
| discovery_site = [[维也纳|维也纳]]
| discovered =  1909年8月25日
| mp_name = 688
| alt_names = 1909 HH
| named_after = 
| mp_category=[[小行星带|主带小行星]]
| orbit_ref = <ref>[http://ssd.jpl.nasa.gov/sbdb.cgi?sstr=688 688 Melanie (1909 HH)]</ref>
| epoch = 2011年8月27日
| semimajor= 2.698953131229789AU
| perihelion=2.331053595884899AU
| aphelion= 3.06685266657468[[天文单位|AU]]
| eccentricity =0.1363119392804186			
| period =1619.539113670862[[日|地球日]]<br>4.43[[年|地球年]] 
| inclination=10.24702520380085[[角度|°]]
| asc_node=171.1028496130319°
| arg_peri=139.4571513820615°
| mean_anomaly=28.36188835000685°
| avg_speed=
 | dimensions=41.40千米
 | mass=
 | density=
 | surface_grav=
 | escape_velocity=
 | rotation=20.0小时
 | spectral_type=[[C-型小行星|C]]
 | magnitude=
 | abs_magnitude=10.59
 | albedo=0.0599
 | single_temperature=
}}
'''小行星688'''（'''688 Melanie'''），是由[[奥地利|奥地利]][[天文学家|天文学家]][[约翰·帕利扎|约翰·帕利扎]]于1909年8月25日在[[奥匈帝国|奥匈帝国]][[维也纳|维也纳]]发现的[[小行星带|主带]][[小行星|小行星]]。

小行星688的命名依据不详。

== 参考资料 ==
{{Reflist}}

{{Minor Planet Number|(687)[[小行星687|小行星687]]|(689)[[小行星689|小行星689]]}}

[[Category:小行星带天体|Category:小行星带天体]]
[[Category:1909年发现的小行星|Category:1909年发现的小行星]]
[[Category:C-型小行星|Category:C-型小行星]]
[[Category:约翰·帕利扎发现的天体|Category:约翰·帕利扎发现的天体]]